GLOBALSTAR M001 [-]     
1 25162U 98008A   23321.78635997 -.00000020  00000+0  58714-3 0  9996
2 25162  52.0027 213.7369 0002478  95.7251  30.6681 12.38173129172185
GLOBALSTAR M004 [-]     
1 25163U 98008B   23321.87672686 -.00000111  00000+0 -40508-4 0  9998
2 25163  52.0020  15.3171 0003384  91.8600  80.0475 12.63341976188719
GLOBALSTAR M002 [-]     
1 25164U 98008C   23321.80330508 -.00000084  00000+0 -15188-3 0  9990
2 25164  52.0013 247.8811 0001254 127.9079 232.1854 11.61497121116971
GLOBALSTAR M003 [-]     
1 25165U 98008D   23321.78380950  .00000026  00000+0  12340-2 0  9994
2 25165  51.9791 327.7953 0007800 209.5832 321.3757 12.11953581163209
GLOBALSTAR M014 [-]     
1 25306U 98023A   23321.91635612 -.00000067  00000+0  20141-3 0  9996
2 25306  51.9816 182.9570 0001735  53.9542 318.9475 11.65462032123861
GLOBALSTAR M006 [-]     
1 25307U 98023B   23321.73063619 -.00000049  00000+0  55243-3 0  9990
2 25307  51.9928 214.3178 0003831 134.0613 239.0696 11.58156950149923
GLOBALSTAR M015 [-]     
1 25308U 98023C   23321.84031536 -.00000032  00000+0  95474-3 0  9998
2 25308  51.9825 286.0615 0012356 126.1156 241.9970 11.48858161127721
GLOBALSTAR M008 [-]     
1 25309U 98023D   23321.60717170 -.00000077  00000+0  14859-3 0  9995
2 25309  51.9972  72.5460 0002805  54.2996 318.7704 12.36031602166421
